start=new Date('2022-11-08T00:00:00.000Z').valueOf();
sats=[{"TLE_LINE2":"2 52354  53.2196 267.4095 0002988  28.8090 331.3067 15.08832673 31891","MEAN_ANOMALY":"331.3067","INCLINATION":"53.2196","BSTAR":"0.00003028500000","OBJECT_TYPE":"PAYLOAD","EPOCH":"2022-11-07T14:03:09.412704","REF_FRAME":"TEME","DECAY_DATE":null,"MEAN_ELEMENT_THEORY":"SGP4","TLE_LINE1":"1 52354U 22045Z   22311.58552561  .00000193  00000-0  30285-4 0  9993","SEMIMAJOR_AXIS":"6917.903","RCS_SIZE":"LARGE","ECCENTRICITY":"0.00029880","OBJECT_NAME":"STARLINK-3876","MEAN_MOTION_DDOT":"0.0000000000000","PERIOD":"95.438","CLASSIFICATION_TYPE":"U","NORAD_CAT_ID":"52354","MEAN_MOTION_DOT":"0.00000193","SITE":"AFETR","OBJECT_ID":"2022-045Z","EPHEMERIS_TYPE":"0","COUNTRY_CODE":"US","REV_AT_EPOCH":"3189","TIME_SYSTEM":"UTC","RA_OF_ASC_NODE":"267.4095","LAUNCH_DATE":"2022-04-29","GP_ID":"217107835","ELEMENT_SET_NO":"999","APOAPSIS":"541.835","ARG_OF_PERICENTER":"28.8090","PERIAPSIS":"537.701","MEAN_MOTION":"15.08832673","CENTER_NAME":"EARTH","FILE":"3648233"},{"BSTAR":"0.00020254000000","OBJECT_TYPE":"PAYLOAD","DECAY_DATE":null,"REF_FRAME":"TEME","EPOCH":"2022-11-07T20:45:53.532288","MEAN_ELEMENT_THEORY":"SGP4","RCS_SIZE":"LARGE","TLE_LINE1":"1 52355U 22045AA  22311.86520292  .00002936  00000-0  20254-3 0  9992","SEMIMAJOR_AXIS":"6917.924","ECCENTRICITY":"0.00020090","TLE_LINE2":"2 52355  53.2169 266.1553 0002009  38.4396 321.6739 15.08825782 31933","INCLINATION":"53.2169","MEAN_ANOMALY":"321.6739","SITE":"AFETR","MEAN_MOTION_DDOT":"0.0000000000000","OBJECT_NAME":"STARLINK-3877","PERIOD":"95.438","MEAN_MOTION_DOT":"0.00002936","NORAD_CAT_ID":"52355","CLASSIFICATION_TYPE":"U","COUNTRY_CODE":"US","REV_AT_EPOCH":"3193","TIME_SYSTEM":"UTC","RA_OF_ASC_NODE":"266.1553","OBJECT_ID":"2022-045AA","EPHEMERIS_TYPE":"0","ARG_OF_PERICENTER":"38.4396","CENTER_NAME":"EARTH","MEAN_MOTION":"15.08825782","PERIAPSIS":"538.399","FILE":"3648233","LAUNCH_DATE":"2022-04-29","ELEMENT_SET_NO":"999","GP_ID":"217108086","APOAPSIS":"541.179"},{"MEAN_ELEMENT_THEORY":"SGP4","TLE_LINE1":"1 52356U 22045AB  22311.58648529  .00003350  00000-0  22850-3 0  9991","SEMIMAJOR_AXIS":"6917.899","RCS_SIZE":"LARGE","ECCENTRICITY":"0.00023480","BSTAR":"0.00022850000000","OBJECT_TYPE":"PAYLOAD","EPOCH":"2022-11-07T14:04:32.329056","REF_FRAME":"TEME","DECAY_DATE":null,"MEAN_ANOMALY":"328.9253","INCLINATION":"53.2187","TLE_LINE2":"2 52356  53.2187 267.3985 0002348  31.1878 328.9253 15.08833775 31894","SITE":"AFETR","PERIOD":"95.438","NORAD_CAT_ID":"52356","CLASSIFICATION_TYPE":"U","MEAN_MOTION_DOT":"0.00003350","OBJECT_NAME":"STARLINK-3801","MEAN_MOTION_DDOT":"0.0000000000000","REV_AT_EPOCH":"3189","RA_OF_ASC_NODE":"267.3985","TIME_SYSTEM":"UTC","COUNTRY_CODE":"US","EPHEMERIS_TYPE":"0","OBJECT_ID":"2022-045AB","PERIAPSIS":"538.140","MEAN_MOTION":"15.08833775","CENTER_NAME":"EARTH","FILE":"3648233","ARG_OF_PERICENTER":"31.1878","GP_ID":"217106834","ELEMENT_SET_NO":"999","APOAPSIS":"541.389","LAUNCH_DATE":"2022-04-29"},{"ARG_OF_PERICENTER":"25.4837","FILE":"3648233","MEAN_MOTION":"15.08820503","PERIAPSIS":"537.676","CENTER_NAME":"EARTH","LAUNCH_DATE":"2022-04-29","APOAPSIS":"541.934","GP_ID":"217107084","ELEMENT_SET_NO":"999","COUNTRY_CODE":"US","TIME_SYSTEM":"UTC","RA_OF_ASC_NODE":"267.0835","REV_AT_EPOCH":"3190","OBJECT_ID":"2022-045AC","EPHEMERIS_TYPE":"0","SITE":"AFETR","MEAN_MOTION_DDOT":"0.0000000000000","OBJECT_NAME":"STARLINK-3821","NORAD_CAT_ID":"52357","CLASSIFICATION_TYPE":"U","MEAN_MOTION_DOT":"0.00002208","PERIOD":"95.439","REF_FRAME":"TEME","EPOCH":"2022-11-07T15:49:08.641920","DECAY_DATE":null,"OBJECT_TYPE":"PAYLOAD","BSTAR":"0.00015689000000","TLE_LINE1":"1 52357U 22045AC  22311.65912780  .00002208  00000-0  15689-3 0  9996","SEMIMAJOR_AXIS":"6917.940","RCS_SIZE":"LARGE","ECCENTRICITY":"0.00030780","MEAN_ELEMENT_THEORY":"SGP4","TLE_LINE2":"2 52357  53.2175 267.0835 0003078  25.4837 334.6306 15.08820503 31905","MEAN_ANOMALY":"334.6306","INCLINATION":"53.2175"},{"OBJECT_NAME":"STARLINK-3837","MEAN_MOTION_DDOT":"0.0000000000000","MEAN_MOTION_DOT":"0.00023718","NORAD_CAT_ID":"52358","CLASSIFICATION_TYPE":"U","PERIOD":"95.444","SITE":"AFETR","TLE_LINE2":"2 52358  53.2187 266.2658 0001774  32.1827 327.9274 15.08730277 31938","INCLINATION":"53.2187","MEAN_ANOMALY":"327.9274","DECAY_DATE":null,"EPOCH":"2022-11-07T20:08:51.048672","REF_FRAME":"TEME","OBJECT_TYPE":"PAYLOAD","BSTAR":"0.00150780000000","TLE_LINE1":"1 52358U 22045AD  22311.83947973  .00023718  00000-0  15078-2 0  9999","RCS_SIZE":"LARGE","ECCENTRICITY":"0.00017740","SEMIMAJOR_AXIS":"6918.216","MEAN_ELEMENT_THEORY":"SGP4","LAUNCH_DATE":"2022-04-29","APOAPSIS":"541.308","ELEMENT_SET_NO":"999","GP_ID":"217107336","ARG_OF_PERICENTER":"32.1827","FILE":"3648233","CENTER_NAME":"EARTH","PERIAPSIS":"538.853","MEAN_MOTION":"15.08730277","OBJECT_ID":"2022-045AD","EPHEMERIS_TYPE":"0","COUNTRY_CODE":"US","TIME_SYSTEM":"UTC","RA_OF_ASC_NODE":"266.2658","REV_AT_EPOCH":"3193"},{"EPHEMERIS_TYPE":"0","OBJECT_ID":"2022-045AE","RA_OF_ASC_NODE":"266.2067","TIME_SYSTEM":"UTC","REV_AT_EPOCH":"3193","COUNTRY_CODE":"US","APOAPSIS":"541.612","GP_ID":"217107587","ELEMENT_SET_NO":"999","LAUNCH_DATE":"2022-04-29","FILE":"3648233","MEAN_MOTION":"15.08830559","PERIAPSIS":"537.937","CENTER_NAME":"EARTH","ARG_OF_PERICENTER":"26.0325","MEAN_ANOMALY":"334.0800","INCLINATION":"53.2178","TLE_LINE2":"2 52359  53.2178 266.2067 0002656  26.0325 334.0800 15.08830559 31936","TLE_LINE1":"1 52359U 22045AE  22311.85416439  .00003888  00000-0  26233-3 0  9992","RCS_SIZE":"LARGE","ECCENTRICITY":"0.00026560","SEMIMAJOR_AXIS":"6917.909","MEAN_ELEMENT_THEORY":"SGP4","EPOCH":"2022-11-07T20:29:59.803296","REF_FRAME":"TEME","DECAY_DATE":null,"BSTAR":"0.00026233000000","OBJECT_TYPE":"PAYLOAD","CLASSIFICATION_TYPE":"U","NORAD_CAT_ID":"52359","MEAN_MOTION_DOT":"0.00003888","PERIOD":"95.438","MEAN_MOTION_DDOT":"0.0000000000000","OBJECT_NAME":"STARLINK-3853","SITE":"AFETR"},{"EPHEMERIS_TYPE":"0","OBJECT_ID":"2022-045AF","REV_AT_EPOCH":"3205","RA_OF_ASC_NODE":"256.3004","TIME_SYSTEM":"UTC","COUNTRY_CODE":"US","GP_ID":"217106335","ELEMENT_SET_NO":"999","APOAPSIS":"541.347","LAUNCH_DATE":"2022-04-29","PERIAPSIS":"538.263","MEAN_MOTION":"15.08820388","CENTER_NAME":"EARTH","FILE":"3648233","ARG_OF_PERICENTER":"24.5547","MEAN_ANOMALY":"335.5551","INCLINATION":"53.2185","TLE_LINE2":"2 52360  53.2185 256.3004 0002229  24.5547 335.5551 15.08820388 32054","MEAN_ELEMENT_THEORY":"SGP4","RCS_SIZE":"LARGE","TLE_LINE1":"1 52360U 22045AF  22311.83300979  .00005625  00000-0  37144-3 0  9997","ECCENTRICITY":"0.00022290","SEMIMAJOR_AXIS":"6917.940","BSTAR":"0.00037144000000","OBJECT_TYPE":"PAYLOAD","EPOCH":"2022-11-07T19:59:32.045856","REF_FRAME":"TEME","DECAY_DATE":null,"PERIOD":"95.439","CLASSIFICATION_TYPE":"U","NORAD_CAT_ID":"52360","MEAN_MOTION_DOT":"0.00005625","MEAN_MOTION_DDOT":"0.0000000000000","OBJECT_NAME":"STARLINK-3824","SITE":"AFETR"},{"MEAN_MOTION_DOT":"0.00008157","NORAD_CAT_ID":"52361","CLASSIFICATION_TYPE":"U","PERIOD":"95.437","OBJECT_NAME":"STARLINK-3728","MEAN_MOTION_DDOT":"0.0000000000000","SITE":"AFETR","INCLINATION":"53.2180","MEAN_ANOMALY":"333.5619","TLE_LINE2":"2 52361  53.2180 265.9331 0002273  26.5489 333.5619 15.08852619 31947","ECCENTRICITY":"0.00022730","TLE_LINE1":"1 52361U 22045AG  22311.91303937  .00008157  00000-0  52982-3 0  9994","RCS_SIZE":"LARGE","SEMIMAJOR_AXIS":"6917.842","MEAN_ELEMENT_THEORY":"SGP4","DECAY_DATE":null,"EPOCH":"2022-11-07T21:54:46.601568","REF_FRAME":"TEME","OBJECT_TYPE":"PAYLOAD","BSTAR":"0.00052982000000","APOAPSIS":"541.279","ELEMENT_SET_NO":"999","GP_ID":"217106585","LAUNCH_DATE":"2022-04-29","FILE":"3648233","CENTER_NAME":"EARTH","PERIAPSIS":"538.134","MEAN_MOTION":"15.08852619","ARG_OF_PERICENTER":"26.5489","EPHEMERIS_TYPE":"0","OBJECT_ID":"2022-045AG","TIME_SYSTEM":"UTC","RA_OF_ASC_NODE":"265.9331","REV_AT_EPOCH":"3194","COUNTRY_CODE":"US"},{"PERIOD":"95.439","MEAN_MOTION_DOT":"0.00001824","CLASSIFICATION_TYPE":"U","NORAD_CAT_ID":"52362","MEAN_MOTION_DDOT":"0.0000000000000","OBJECT_NAME":"STARLINK-3848","SITE":"AFETR","INCLINATION":"53.2177","MEAN_ANOMALY":"326.7759","TLE_LINE2":"2 52362  53.2177 257.5016 0002917  33.3416 326.7759 15.08819432 32027","MEAN_ELEMENT_THEORY":"SGP4","TLE_LINE1":"1 52362U 22045AH  22311.56437146  .00001824  00000-0  13278-3 0  9995","ECCENTRICITY":"0.00029170","RCS_SIZE":"LARGE","SEMIMAJOR_AXIS":"6917.943","BSTAR":"0.00013278000000","OBJECT_TYPE":"PAYLOAD","DECAY_DATE":null,"EPOCH":"2022-11-07T13:32:41.694144","REF_FRAME":"TEME","ELEMENT_SET_NO":"999","GP_ID":"217107836","APOAPSIS":"541.826","LAUNCH_DATE":"2022-04-29","CENTER_NAME":"EARTH","MEAN_MOTION":"15.08819432","PERIAPSIS":"537.790","FILE":"3648233","ARG_OF_PERICENTER":"33.3416","EPHEMERIS_TYPE":"0","OBJECT_ID":"2022-045AH","REV_AT_EPOCH":"3202","TIME_SYSTEM":"UTC","RA_OF_ASC_NODE":"257.5016","COUNTRY_CODE":"US"},{"LAUNCH_DATE":"2022-04-29","APOAPSIS":"541.539","ELEMENT_SET_NO":"999","GP_ID":"217108087","ARG_OF_PERICENTER":"27.1786","FILE":"3648233","CENTER_NAME":"EARTH","MEAN_MOTION":"15.08822947","PERIAPSIS":"538.056","OBJECT_ID":"2022-045AJ","EPHEMERIS_TYPE":"0","COUNTRY_CODE":"US","RA_OF_ASC_NODE":"267.4340","TIME_SYSTEM":"UTC","REV_AT_EPOCH":"3189","OBJECT_NAME":"STARLINK-3830","MEAN_MOTION_DDOT":"0.0000000000000","MEAN_MOTION_DOT":"0.00001991","NORAD_CAT_ID":"52363","CLASSIFICATION_TYPE":"U","PERIOD":"95.439","SITE":"AFETR","TLE_LINE2":"2 52363  53.2191 267.4340 0002517  27.1786 332.9337 15.08822947 31891","INCLINATION":"53.2191","MEAN_ANOMALY":"332.9337","DECAY_DATE":null,"REF_FRAME":"TEME","EPOCH":"2022-11-07T13:52:33.293568","OBJECT_TYPE":"PAYLOAD","BSTAR":"0.00014325000000","TLE_LINE1":"1 52363U 22045AJ  22311.57816312  .00001991  00000-0  14325-3 0  9992","RCS_SIZE":"LARGE","ECCENTRICITY":"0.00025170","SEMIMAJOR_AXIS":"6917.933","MEAN_ELEMENT_THEORY":"SGP4"}];
